{"type": "FeatureCollection", "features": [ {"type": "Feature", "properties": {"norad_id": 30815, "name": "FENGYUN 1C DEB", "group": "fengyun-1c-debris", "lat": 65.14857322330862, "lon": 139.05754638176552, "alt_km": 642.948551485244, "timestamp": "2025-12-27T16:33:30.501321+00:00", "meta": {"OBJECT_NAME": "FENGYUN 1C DEB", "OBJECT_ID": "1999-025AUZ", "EPOCH": "2025-12-26T05:13:44.353344", "MEAN_MOTION": 14.74213205, "ECCENTRICITY": 0.0002813, "INCLINATION": 99.3001, "RA_OF_ASC_NODE": 158.0908, "ARG_OF_PERICENTER": 262.4009, "MEAN_ANOMALY": 276.3469, "EPHEMERIS_TYPE": 0, "CLASSIFICATION_TYPE": "U", "NORAD_CAT_ID": 30815, "ELEMENT_SET_NO": 999, "REV_AT_EPOCH": 97978, "BSTAR": 0.0040328, "MEAN_MOTION_DOT": 0.00026679, "MEAN_MOTION_DDOT": 0}, "tle": {"line1": "1 30815U 99025AUZ 25360.21787446  .00026679  00000+0  40328-2 0  9995", "line2": "2 30815  99.3001 158.0908 0002813 262.4009 276.3469 14.74213205979785"}}, "geometry": {"type": "Point", "coordinates": [139.05754638176552, 65.14857322330862]}}, {"type": "Feature", "properties": {"norad_id": 30816, "name": "FENGYUN 1C DEB", "group": "fengyun-1c-debris", "lat": -75.98424611813807, "lon": 111.17937838325926, "alt_km": 839.5928101952559, "timestamp": "2025-12-27T16:33:30.501331+00:00", "meta": {"OBJECT_NAME": "FENGYUN 1C DEB", "OBJECT_ID": "1999-025AVA", "EPOCH": "2025-12-26T03:55:42.500640", "MEAN_MOTION": 14.18090011, "ECCENTRICITY": 0.00515302, "INCLINATION": 98.9129, "RA_OF_ASC_NODE": 70.6961, "ARG_OF_PERICENTER": 16.3148, "MEAN_ANOMALY": 37.791, "EPHEMERIS_TYPE": 0, "CLASSIFICATION_TYPE": "U", "NORAD_CAT_ID": 30816, "ELEMENT_SET_NO": 999, "REV_AT_EPOCH": 96584, "BSTAR": 0.0014837064, "MEAN_MOTION_DOT": 3.039e-05, "MEAN_MOTION_DDOT": 0}, "tle": {"line1": "1 30816U 99025AVA 25360.16368635  .00003039  00000+0  14837-2 0  9996", "line2": "2 30816  98.9129  70.6961 0051530  16.3148  37.7910 14.18090011965848"}}, "geometry": {"type": "Point", "coordinates": [111.17937838325926, -75.98424611813807]}}, {"type": "Feature", "properties": {"norad_id": 30817, "name": "FENGYUN 1C DEB", "group": "fengyun-1c-debris", "lat": 26.29241215123398, "lon": 175.7087777328997, "alt_km": 862.659475202001, "timestamp": "2025-12-27T16:33:30.501341+00:00", "meta": {"OBJECT_NAME": "FENGYUN 1C DEB", "OBJECT_ID": "1999-025AVB", "EPOCH": "2025-12-26T10:40:53.792256", "MEAN_MOTION": 14.00728575, "ECCENTRICITY": 0.0057722, "INCLINATION": 98.7855, "RA_OF_ASC_NODE": 350.1299, "ARG_OF_PERICENTER": 205.8821, "MEAN_ANOMALY": 153.9454, "EPHEMERIS_TYPE": 0, "CLASSIFICATION_TYPE": "U", "NORAD_CAT_ID": 30817, "ELEMENT_SET_NO": 999, "REV_AT_EPOCH": 96101, "BSTAR": 0.00017607, "MEAN_MOTION_DOT": 2.24e-06, "MEAN_MOTION_DDOT": 0}, "tle": {"line1": "1 30817U 99025AVB 25360.44506704  .00000224  00000+0  17607-3 0  9991", "line2": "2 30817  98.7855 350.1299 0057722 205.8821 153.9454 14.00728575961018"}}, "geometry": {"type": "Point", "coordinates": [175.7087777328997, 26.29241215123398]}}, {"type": "Feature", "properties": {"norad_id": 30820, "name": "FENGYUN 1C DEB", "group": "fengyun-1c-debris", "lat": 51.055743591773826, "lon": 86.84513315100963, "alt_km": 817.5091923331674, "timestamp": "2025-12-27T16:33:30.501351+00:00", "meta": {"OBJECT_NAME": "FENGYUN 1C DEB", "OBJECT_ID": "1999-025AVE", "EPOCH": "2025-12-25T12:33:12.194784", "MEAN_MOTION": 14.2149962, "ECCENTRICITY": 0.0051904, "INCLINATION": 98.6752, "RA_OF_ASC_NODE": 95.6053, "ARG_OF_PERICENTER": 151.6318, "MEAN_ANOMALY": 338.3208, "EPHEMERIS_TYPE": 0, "CLASSIFICATION_TYPE": "U", "NORAD_CAT_ID": 30820, "ELEMENT_SET_NO": 999, "REV_AT_EPOCH": 96605, "BSTAR": 0.0020011, "MEAN_MOTION_DOT": 4.399e-05, "MEAN_MOTION_DDOT": 0}, "tle": {"line1": "1 30820U 99025AVE 25359.52305781  .00004399  00000+0  20011-2 0  9993", "line2": "2 30820  98.6752  95.6053 0051904 151.6318 338.3208 14.21499620966055"}}, "geometry": {"type": "Point", "coordinates": [86.84513315100963, 51.055743591773826]}}, {"type": "Feature", "properties": {"norad_id": 30821, "name": "FENGYUN 1C DEB", "group": "fengyun-1c-debris", "lat": -2.3664702046504096, "lon": -34.92423414643457, "alt_km": 672.057079290329, "timestamp": "2025-12-27T16:33:30.501361+00:00", "meta": {"OBJECT_NAME": "FENGYUN 1C DEB", "OBJECT_ID": "1999-025AVF", "EPOCH": "2025-12-25T22:54:45.761184", "MEAN_MOTION": 14.49745385, "ECCENTRICITY": 0.0086733, "INCLINATION": 99.1039, "RA_OF_ASC_NODE": 143.5826, "ARG_OF_PERICENTER": 166.5334, "MEAN_ANOMALY": 324.1746, "EPHEMERIS_TYPE": 0, "CLASSIFICATION_TYPE": "U", "NORAD_CAT_ID": 30821, "ELEMENT_SET_NO": 999, "REV_AT_EPOCH": 98980, "BSTAR": 0.00086483, "MEAN_MOTION_DOT": 3.442e-05, "MEAN_MOTION_DDOT": 0}, "tle": {"line1": "1 30821U 99025AVF 25359.95469631  .00003442  00000+0  86483-3 0  9990", "line2": "2 30821  99.1039 143.5826 0086733 166.5334 324.1746 14.49745385989802"}}, "geometry": {"type": "Point", "coordinates": [-34.92423414643457, -2.3664702046504096]}}, {"type": "Feature", "properties": {"norad_id": 30822, "name": "FENGYUN 1C DEB", "group": "fengyun-1c-debris", "lat": -13.941185892775561, "lon": -152.83586227841545, "alt_km": 823.8186402158344, "timestamp": "2025-12-27T16:33:30.501371+00:00", "meta": {"OBJECT_NAME": "FENGYUN 1C DEB", "OBJECT_ID": "1999-025AVG", "EPOCH": "2025-12-27T00:27:53.515296", "MEAN_MOTION": 14.11360764, "ECCENTRICITY": 0.00733959, "INCLINATION": 98.734, "RA_OF_ASC_NODE": 28.6987, "ARG_OF_PERICENTER": 244.3564, "MEAN_ANOMALY": 145.0814, "EPHEMERIS_TYPE": 0, "CLASSIFICATION_TYPE": "U", "NORAD_CAT_ID": 30822, "ELEMENT_SET_NO": 999, "REV_AT_EPOCH": 96903, "BSTAR": 0.00040278444, "MEAN_MOTION_DOT": 7.04e-06, "MEAN_MOTION_DDOT": 0}, "tle": {"line1": "1 30822U 99025AVG 25361.01936939  .00000704  00000+0  40278-3 0  9991", "line2": "2 30822  98.7340  28.6987 0073395 244.3564 145.0814 14.11360764969036"}}, "geometry": {"type": "Point", "coordinates": [-152.83586227841545, -13.941185892775561]}}, {"type": "Feature", "properties": {"norad_id": 30823, "name": "FENGYUN 1C DEB", "group": "fengyun-1c-debris", "lat": 0.8459442079288436, "lon": -37.728596512043524, "alt_km": 957.3021195213096, "timestamp": "2025-12-27T16:33:30.501381+00:00", "meta": {"OBJECT_NAME": "FENGYUN 1C DEB", "OBJECT_ID": "1999-025AVH", "EPOCH": "2025-12-25T09:13:30.836352", "MEAN_MOTION": 14.02567843, "ECCENTRICITY": 0.0134243, "INCLINATION": 98.7637, "RA_OF_ASC_NODE": 139.9222, "ARG_OF_PERICENTER": 49.3864, "MEAN_ANOMALY": 13.7121, "EPHEMERIS_TYPE": 0, "CLASSIFICATION_TYPE": "U", "NORAD_CAT_ID": 30823, "ELEMENT_SET_NO": 999, "REV_AT_EPOCH": 96211, "BSTAR": 0.00018271, "MEAN_MOTION_DOT": 2.63e-06, "MEAN_MOTION_DDOT": 0}, "tle": {"line1": "1 30823U 99025AVH 25359.38438468  .00000263  00000+0  18271-3 0  9991", "line2": "2 30823  98.7637 139.9222 0134243  49.3864  13.7121 14.02567843962111"}}, "geometry": {"type": "Point", "coordinates": [-37.728596512043524, 0.8459442079288436]}}, {"type": "Feature", "properties": {"norad_id": 30826, "name": "FENGYUN 1C DEB", "group": "fengyun-1c-debris", "lat": -80.3605139837107, "lon": -48.49206897643537, "alt_km": 554.7617644565207, "timestamp": "2025-12-27T16:33:30.501391+00:00", "meta": {"OBJECT_NAME": "FENGYUN 1C DEB", "OBJECT_ID": "1999-025AVL", "EPOCH": "2025-12-26T07:46:25.771296", "MEAN_MOTION": 14.8236502, "ECCENTRICITY": 0.0144401, "INCLINATION": 98.8676, "RA_OF_ASC_NODE": 196.8033, "ARG_OF_PERICENTER": 313.7278, "MEAN_ANOMALY": 228.0745, "EPHEMERIS_TYPE": 0, "CLASSIFICATION_TYPE": "U", "NORAD_CAT_ID": 30826, "ELEMENT_SET_NO": 999, "REV_AT_EPOCH": 487, "BSTAR": 0.00062754, "MEAN_MOTION_DOT": 5.953e-05, "MEAN_MOTION_DDOT": 0}, "tle": {"line1": "1 30826U 99025AVL 25360.32390939  .00005953  00000+0  62754-3 0  9996", "line2": "2 30826  98.8676 196.8033 0144401 313.7278 228.0745 14.82365020  4878"}}, "geometry": {"type": "Point", "coordinates": [-48.49206897643537, -80.3605139837107]}}, {"type": "Feature", "properties": {"norad_id": 30827, "name": "FENGYUN 1C DEB", "group": "fengyun-1c-debris", "lat": -13.815978577750833, "lon": 165.5763730616344, "alt_km": 753.6369313688701, "timestamp": "2025-12-27T16:33:30.501401+00:00", "meta": {"OBJECT_NAME": "FENGYUN 1C DEB", "OBJECT_ID": "1999-025AVM", "EPOCH": "2025-12-22T05:24:17.025120", "MEAN_MOTION": 14.37918372, "ECCENTRICITY": 0.00439891, "INCLINATION": 99.0037, "RA_OF_ASC_NODE": 342.0879, "ARG_OF_PERICENTER": 150.3136, "MEAN_ANOMALY": 210.056, "EPHEMERIS_TYPE": 0, "CLASSIFICATION_TYPE": "U", "NORAD_CAT_ID": 30827, "ELEMENT_SET_NO": 999, "REV_AT_EPOCH": 96685, "BSTAR": 0.0026816406, "MEAN_MOTION_DOT": 8.15e-05, "MEAN_MOTION_DDOT": 0}, "tle": {"line1": "1 30827U 99025AVM 25356.22519705  .00008150  00000+0  26816-2 0  9995", "line2": "2 30827  99.0037 342.0879 0043989 150.3136 210.0560 14.37918372966858"}}, "geometry": {"type": "Point", "coordinates": [165.5763730616344, -13.815978577750833]}}, {"type": "Feature", "properties": {"norad_id": 30828, "name": "FENGYUN 1C DEB", "group": "fengyun-1c-debris", "lat": 11.937332156495899, "lon": -68.97366427416493, "alt_km": 520.4923199865043, "timestamp": "2025-12-27T16:33:30.501412+00:00", "meta": {"OBJECT_NAME": "FENGYUN 1C DEB", "OBJECT_ID": "1999-025AVN", "EPOCH": "2025-12-27T06:20:30.556320", "MEAN_MOTION": 14.77454297, "ECCENTRICITY": 0.02081847, "INCLINATION": 98.3754, "RA_OF_ASC_NODE": 108.7991, "ARG_OF_PERICENTER": 132.4608, "MEAN_ANOMALY": 291.0991, "EPHEMERIS_TYPE": 0, "CLASSIFICATION_TYPE": "U", "NORAD_CAT_ID": 30828, "ELEMENT_SET_NO": 999, "REV_AT_EPOCH": 98871, "BSTAR": 0.0016215107, "MEAN_MOTION_DOT": 0.00016555, "MEAN_MOTION_DDOT": 0}, "tle": {"line1": "1 30828U 99025AVN 25361.26424255  .00016555  00000+0  16215-2 0  9991", "line2": "2 30828  98.3754 108.7991 0208184 132.4608 291.0991 14.77454297988715"}}, "geometry": {"type": "Point", "coordinates": [-68.97366427416493, 11.937332156495899]}}]}